CUTE-1 (CO-55)          
1 27844U 03031E   26203.02043421  .00000248  00000+0  12599-3 0  9993
2 27844  98.6746 211.1424 0010865  85.1990 275.0430 14.24354732196635
CUBESAT XI-IV (CO-57)   
1 27848U 03031J   26202.46414799  .00000171  00000+0  94004-4 0  9991
2 27848  98.6777 210.2780 0010700 103.0346 257.2027 14.23636890196250
CUBESAT XI-V            
1 28895U 05043F   26202.37477685  .00000932  00000+0  15414-3 0  9994
2 28895  98.3024 358.7230 0015344  97.2573 263.0378 14.72712744106788
CUTE-1.7+APD II (CO-65) 
1 32785U 08021C   26203.24657463  .00004754  00000+0  29868-3 0  9991
2 32785  97.8297 185.4067 0006926 269.3303  90.7131 15.09741550990487
CANX-2                  
1 32790U 08021H   26202.37920509  .00002213  00000+0  15697-3 0  9997
2 32790  97.8661 182.8312 0008613 293.0551  66.9766 15.05828715989950
SEEDS II (CO-66)        
1 32791U 08021J   26202.46224214  .00017397  00000+0  53391-3 0  9990
2 32791  97.7536 202.0274 0003743 143.8472 216.3023 15.33809298992548
SWISSCUBE               
1 35932U 09051B   26202.23982576  .00000659  00000+0  13969-3 0  9991
2 35932  98.4000 110.7173 0008063 103.0186 257.1915 14.62538248894139
BEESAT-1                
1 35933U 09051C   26203.22540006  .00000617  00000+0  13357-3 0  9995
2 35933  98.3928 111.2816 0006443 111.6520 248.5367 14.61769634894303
ITUPSAT1                
1 35935U 09051E   26202.97297986  .00000620  00000+0  13787-3 0  9995
2 35935  98.4011 110.1798 0008455 124.3905 235.8095 14.60485984893813
TISAT 1                 
1 36799U 10035E   26202.59601294  .00020197  00000+0  63722-3 0  9992
2 36799  98.0708 152.2342 0004823 107.8741 252.3026 15.32897907872976
STRAND-1                
1 39090U 13009E   26203.00591478  .00000243  00000+0  95889-4 0  9992
2 39090  98.3941  22.3864 0009700 122.8343 237.3779 14.37181893702069
BRITE-AUSTRIA           
1 39091U 13009F   26203.03391570  .00000142  00000+0  62806-4 0  9998
2 39091  98.4015  21.6105 0011107 131.8384 228.3753 14.36554513702055
NEE-01 PEGASO           
1 39151U 13018B   26202.89787831  .00002191  00000+0  21196-3 0  9999
2 39151  98.1266 348.2068 0013503  54.1935 306.0536 14.93813562715887
POPACS 2                
1 39269U 13055E   26202.18625094  .00017810 -90713-6  29070-3 0  9995
2 39269  80.9903 105.2569 0414414  84.6661 280.1681 14.92193040668286
POPACS 3                
1 39270U 13055F   26202.94855447  .00010270  00000+0  24503-3 0  9999
2 39270  81.0010 191.4730 0547878 324.0661  32.4808 14.56772916643612
ZACUBE-1 (TSHEPISOSAT)  
1 39417U 13066B   26201.86646474  .00001847  00000+0  14537-3 0  9998
2 39417  97.7999 164.3670 0044079 137.0238 223.4444 15.01347026685787
WNISAT-1                
1 39423U 13066H   26203.20975506  .00000874  00000+0  16620-3 0  9990
2 39423  97.7245 349.8878 0164188 121.3698 240.3685 14.58130952671833
TRITON-1                
1 39427U 13066M   26203.27570057  .00001239  00000+0  15261-3 0  9999
2 39427  97.8211 112.2796 0091108 119.2947 241.7409 14.81812136679289
GOMX-1                  
1 39430U 13066Q   26203.25243366  .00000536  00000+0  87729-4 0  9999
2 39430  97.6470  41.5023 0127658 325.4770  33.8194 14.69551236675060
CUBEBUG-2 (LO-74)       
1 39440U 13066AA  26203.29468735  .00002604  00000+0  24278-3 0  9990
2 39440  97.8917 152.4311 0055448 271.2491  88.2376 14.94001241682233
NEE-02 KRYSAOR          
1 39441U 13066AB  26203.27462208  .00001643  00000+0  18418-3 0  9999
2 39441  97.8896 142.2439 0064824 315.7839  43.8206 14.86759539681415
FUNCUBE-1 (AO-73)       
1 39444U 13066AE  26202.85372639  .00007711  00000+0  47205-3 0  9991
2 39444  97.8301 175.0373 0038113  86.0733 274.4851 15.09885034684892
UWE-3                   
1 39446U 13066AG  26202.83639828  .00003114  00000+0  26825-3 0  9995
2 39446  97.8727 159.1532 0047765 201.8178 158.1010 14.97233886682766
BRITE-CA1 (TORONTO)     
1 40020U 14033L   26202.34936650  .00000807  00000+0  12832-3 0  9998
2 40020  97.9778 330.6555 0078932 166.5957 193.7373 14.72731418647244
DUCHIFAT-1              
1 40021U 14033M   26202.72807689  .00164629  00000+0  12190-2 0  9999
2 40021  98.0415 266.9561 0003625 228.7731 131.3218 15.72417512661161
NANOSATC-BR1            
1 40024U 14033Q   26203.08385036  .00018646  00000+0  59621-3 0  9997
2 40024  98.0713 238.5904 0005023  80.3934 279.7874 15.32485208659325
QB50P1                  
1 40025U 14033R   26203.27215813  .00008312  00000+0  40319-3 0  9997
2 40025  98.0974 216.8915 0010556 104.1834 256.0572 15.18741121658355
QB50P2                  
1 40032U 14033Y   26201.97438004  .00004626  00000+0  24766-3 0  9991
2 40032  98.0771 200.9707 0009144  67.6874 292.5326 15.15553719657788
PERSEUS-M2              
1 40037U 14033AD  26203.25560443  .00000464  00000+0  47306-4 0  9994
2 40037  97.9977 154.5160 0011499 176.8968 183.2325 14.95594899656021
PERSEUS-M1              
1 40039U 14033AF  26203.29260289  .00000731  00000+0  71062-4 0  9998
2 40039  97.9652 148.0056 0011466 173.4533 186.6839 14.95729514655884
